CCSDS_OMM_VERS = 2.0
CREATION_DATE  = 
ORIGINATOR     = 

OBJECT_NAME    = IDEFIX & ARIANE 42P R/B
OBJECT_ID      = 2002-021B
CENTER_NAME    = EARTH
REF_FRAME      = TEME
TIME_SYSTEM    = UTC
MEAN_ELEMENT_THEORY = SGP/SGP4

EPOCH          = 2026-02-11T06:37:00.593184
MEAN_MOTION    = 14.31007127
ECCENTRICITY   = .00106424
INCLINATION    = 98.5842
RA_OF_ASC_NODE = 341.2022
ARG_OF_PERICENTER = 265.6836
MEAN_ANOMALY   = 94.3131

EPHEMERIS_TYPE = 0
CLASSIFICATION_TYPE = U
NORAD_CAT_ID   = 27422
ELEMENT_SET_NO = 999
REV_AT_EPOCH   = 24024
BSTAR          = .14712847E-3
MEAN_MOTION_DOT = .343E-5
MEAN_MOTION_DDOT = 0

CCSDS_OMM_VERS = 2.0
CREATION_DATE  = 
ORIGINATOR     = 

OBJECT_NAME    = AQUA
OBJECT_ID      = 2002-022A
CENTER_NAME    = EARTH
REF_FRAME      = TEME
TIME_SYSTEM    = UTC
MEAN_ELEMENT_THEORY = SGP/SGP4

EPOCH          = 2026-02-11T14:42:32.412096
MEAN_MOTION    = 14.61911453
ECCENTRICITY   = .00014156
INCLINATION    = 98.4126
RA_OF_ASC_NODE = 9.5129
ARG_OF_PERICENTER = 51.0349
MEAN_ANOMALY   = 36.0703

EPHEMERIS_TYPE = 0
CLASSIFICATION_TYPE = U
NORAD_CAT_ID   = 27424
ELEMENT_SET_NO = 999
REV_AT_EPOCH   = 26492
BSTAR          = .24073517E-3
MEAN_MOTION_DOT = .1155E-4
MEAN_MOTION_DDOT = 0

CCSDS_OMM_VERS = 2.0
CREATION_DATE  = 
ORIGINATOR     = 

OBJECT_NAME    = CZ-4B R/B
OBJECT_ID      = 2002-024C
CENTER_NAME    = EARTH
REF_FRAME      = TEME
TIME_SYSTEM    = UTC
MEAN_ELEMENT_THEORY = SGP/SGP4

EPOCH          = 2026-02-11T15:05:36.313728
MEAN_MOTION    = 14.14542880
ECCENTRICITY   = .00511893
INCLINATION    = 98.8899
RA_OF_ASC_NODE = 96.1594
ARG_OF_PERICENTER = 97.0626
MEAN_ANOMALY   = 17.9438

EPHEMERIS_TYPE = 0
CLASSIFICATION_TYPE = U
NORAD_CAT_ID   = 27432
ELEMENT_SET_NO = 999
REV_AT_EPOCH   = 22555
BSTAR          = .46795917E-4
MEAN_MOTION_DOT = .47E-6
MEAN_MOTION_DDOT = 0

CCSDS_OMM_VERS = 2.0
CREATION_DATE  = 
ORIGINATOR     = 

OBJECT_NAME    = MIDORI II (ADEOS-II)
OBJECT_ID      = 2002-056A
CENTER_NAME    = EARTH
REF_FRAME      = TEME
TIME_SYSTEM    = UTC
MEAN_ELEMENT_THEORY = SGP/SGP4

EPOCH          = 2026-02-11T11:33:40.992480
MEAN_MOTION    = 14.29265367
ECCENTRICITY   = .00021716
INCLINATION    = 98.7720
RA_OF_ASC_NODE = 0.7864
ARG_OF_PERICENTER = 79.5037
MEAN_ANOMALY   = 280.6389

EPHEMERIS_TYPE = 0
CLASSIFICATION_TYPE = U
NORAD_CAT_ID   = 27597
ELEMENT_SET_NO = 999
REV_AT_EPOCH   = 20655
BSTAR          = .16797789E-3
MEAN_MOTION_DOT = .382E-5
MEAN_MOTION_DDOT = 0

CCSDS_OMM_VERS = 2.0
CREATION_DATE  = 
ORIGINATOR     = 

OBJECT_NAME    = H-2A R/B
OBJECT_ID      = 2002-056E
CENTER_NAME    = EARTH
REF_FRAME      = TEME
TIME_SYSTEM    = UTC
MEAN_ELEMENT_THEORY = SGP/SGP4

EPOCH          = 2026-02-11T11:26:29.143680
MEAN_MOTION    = 14.33742293
ECCENTRICITY   = .00691124
INCLINATION    = 98.3152
RA_OF_ASC_NODE = 3.8479
ARG_OF_PERICENTER = 239.2816
MEAN_ANOMALY   = 230.6201

EPHEMERIS_TYPE = 0
CLASSIFICATION_TYPE = U
NORAD_CAT_ID   = 27601
ELEMENT_SET_NO = 999
REV_AT_EPOCH   = 21035
BSTAR          = .13956755E-3
MEAN_MOTION_DOT = .356E-5
MEAN_MOTION_DDOT = 0

CCSDS_OMM_VERS = 2.0
CREATION_DATE  = 
ORIGINATOR     = 

OBJECT_NAME    = CZ-4B R/B
OBJECT_ID      = 2003-049C
CENTER_NAME    = EARTH
REF_FRAME      = TEME
TIME_SYSTEM    = UTC
MEAN_ELEMENT_THEORY = SGP/SGP4

EPOCH          = 2026-02-11T14:17:23.188992
MEAN_MOTION    = 14.54991614
ECCENTRICITY   = .00473268
INCLINATION    = 98.6850
RA_OF_ASC_NODE = 36.4826
ARG_OF_PERICENTER = 312.3859
MEAN_ANOMALY   = 47.3336

EPHEMERIS_TYPE = 0
CLASSIFICATION_TYPE = U
NORAD_CAT_ID   = 28059
ELEMENT_SET_NO = 999
REV_AT_EPOCH   = 18280
BSTAR          = .13373674E-3
MEAN_MOTION_DOT = .532E-5
MEAN_MOTION_DDOT = 0

CCSDS_OMM_VERS = 2.0
CREATION_DATE  = 
ORIGINATOR     = 

OBJECT_NAME    = CZ-2C R/B
OBJECT_ID      = 2004-012C
CENTER_NAME    = EARTH
REF_FRAME      = TEME
TIME_SYSTEM    = UTC
MEAN_ELEMENT_THEORY = SGP/SGP4

EPOCH          = 2026-02-11T14:45:29.919168
MEAN_MOTION    = 15.61517703
ECCENTRICITY   = .00156423
INCLINATION    = 97.7304
RA_OF_ASC_NODE = 105.4932
ARG_OF_PERICENTER = 50.2155
MEAN_ANOMALY   = 310.0476

EPHEMERIS_TYPE = 0
CLASSIFICATION_TYPE = U
NORAD_CAT_ID   = 28222
ELEMENT_SET_NO = 999
REV_AT_EPOCH   = 20020
BSTAR          = .61757715E-3
MEAN_MOTION_DOT = .53312E-3
MEAN_MOTION_DDOT = 0

CCSDS_OMM_VERS = 2.0
CREATION_DATE  = 
ORIGINATOR     = 

OBJECT_NAME    = SL-16 R/B
OBJECT_ID      = 2004-021B
CENTER_NAME    = EARTH
REF_FRAME      = TEME
TIME_SYSTEM    = UTC
MEAN_ELEMENT_THEORY = SGP/SGP4

EPOCH          = 2026-02-11T01:56:57.663744
MEAN_MOTION    = 14.14590917
ECCENTRICITY   = .00030366
INCLINATION    = 70.9995
RA_OF_ASC_NODE = 288.3356
ARG_OF_PERICENTER = 76.1222
MEAN_ANOMALY   = 284.0238

EPHEMERIS_TYPE = 0
CLASSIFICATION_TYPE = U
NORAD_CAT_ID   = 28353
ELEMENT_SET_NO = 999
REV_AT_EPOCH   = 11907
BSTAR          = .13390768E-3
MEAN_MOTION_DOT = .21E-5
MEAN_MOTION_DDOT = 0

CCSDS_OMM_VERS = 2.0
CREATION_DATE  = 
ORIGINATOR     = 

OBJECT_NAME    = CZ-4B R/B
OBJECT_ID      = 2004-035C
CENTER_NAME    = EARTH
REF_FRAME      = TEME
TIME_SYSTEM    = UTC
MEAN_ELEMENT_THEORY = SGP/SGP4

EPOCH          = 2026-02-11T14:20:12.801696
MEAN_MOTION    = 15.28577157
ECCENTRICITY   = .00339796
INCLINATION    = 97.3548
RA_OF_ASC_NODE = 77.1574
ARG_OF_PERICENTER = 62.8577
MEAN_ANOMALY   = 297.6121

EPHEMERIS_TYPE = 0
CLASSIFICATION_TYPE = U
NORAD_CAT_ID   = 28415
ELEMENT_SET_NO = 999
REV_AT_EPOCH   = 17592
BSTAR          = .30878458E-3
MEAN_MOTION_DOT = .8658E-4
MEAN_MOTION_DDOT = 0

CCSDS_OMM_VERS = 2.0
CREATION_DATE  = 
ORIGINATOR     = 

OBJECT_NAME    = CZ-2C R/B
OBJECT_ID      = 2004-046B
CENTER_NAME    = EARTH
REF_FRAME      = TEME
TIME_SYSTEM    = UTC
MEAN_ELEMENT_THEORY = SGP/SGP4

EPOCH          = 2026-02-11T14:40:44.522688
MEAN_MOTION    = 14.26983025
ECCENTRICITY   = .01383742
INCLINATION    = 98.1993
RA_OF_ASC_NODE = 319.2155
ARG_OF_PERICENTER = 231.7270
MEAN_ANOMALY   = 127.1398

EPHEMERIS_TYPE = 0
CLASSIFICATION_TYPE = U
NORAD_CAT_ID   = 28480
ELEMENT_SET_NO = 999
REV_AT_EPOCH   = 10478
BSTAR          = .66739874E-4
MEAN_MOTION_DOT = .138E-5
MEAN_MOTION_DDOT = 0

CCSDS_OMM_VERS = 2.0
CREATION_DATE  = 
ORIGINATOR     = 

OBJECT_NAME    = ARIANE 5 R/B
OBJECT_ID      = 2004-049H
CENTER_NAME    = EARTH
REF_FRAME      = TEME
TIME_SYSTEM    = UTC
MEAN_ELEMENT_THEORY = SGP/SGP4

EPOCH          = 2026-02-11T11:50:19.454208
MEAN_MOTION    = 14.85212909
ECCENTRICITY   = .00854625
INCLINATION    = 98.2584
RA_OF_ASC_NODE = 209.9780
ARG_OF_PERICENTER = 76.2573
MEAN_ANOMALY   = 284.8135

EPHEMERIS_TYPE = 0
CLASSIFICATION_TYPE = U
NORAD_CAT_ID   = 28499
ELEMENT_SET_NO = 999
REV_AT_EPOCH   = 14190
BSTAR          = .12317655E-3
MEAN_MOTION_DOT = .1063E-4
MEAN_MOTION_DDOT = 0

CCSDS_OMM_VERS = 2.0
CREATION_DATE  = 
ORIGINATOR     = 

OBJECT_NAME    = CZ-2D R/B
OBJECT_ID      = 2005-024B
CENTER_NAME    = EARTH
REF_FRAME      = TEME
TIME_SYSTEM    = UTC
MEAN_ELEMENT_THEORY = SGP/SGP4

EPOCH          = 2026-02-11T14:01:18.387840
MEAN_MOTION    = 15.57843832
ECCENTRICITY   = .00075996
INCLINATION    = 97.3619
RA_OF_ASC_NODE = 56.8214
ARG_OF_PERICENTER = 109.0075
MEAN_ANOMALY   = 251.2005

EPHEMERIS_TYPE = 0
CLASSIFICATION_TYPE = U
NORAD_CAT_ID   = 28738
ELEMENT_SET_NO = 999
REV_AT_EPOCH   = 13571
BSTAR          = .58011137E-3
MEAN_MOTION_DOT = .4331E-3
MEAN_MOTION_DDOT = 0

