IDEFIX & ARIANE 42P R/B 
1 27422U 02021B   26042.27570131  .00000343  00000+0  14713-3 0  9990
2 27422  98.5842 341.2022 0010642 265.6836  94.3131 14.31007127240247
AQUA                    
1 27424U 02022A   26042.61287514  .00001155  00000+0  24074-3 0  9994
2 27424  98.4126   9.5129 0001415  51.0349  36.0703 14.61911453264927
CZ-4B R/B               
1 27432U 02024C   26042.62889252  .00000047  00000+0  46796-4 0  9998
2 27432  98.8899  96.1594 0051189  97.0626  17.9438 14.14542880225557
MIDORI II (ADEOS-II)    
1 27597U 02056A   26042.48172445  .00000382  00000+0  16798-3 0  9998
2 27597  98.7720   0.7864 0002171  79.5037 280.6389 14.29265367206551
H-2A R/B                
1 27601U 02056E   26042.47672620  .00000356  00000+0  13957-3 0  9998
2 27601  98.3152   3.8479 0069112 239.2816 230.6201 14.33742293210350
CZ-4B R/B               
1 28059U 03049C   26042.59540728  .00000532  00000+0  13374-3 0  9994
2 28059  98.6850  36.4826 0047326 312.3859  47.3336 14.54991614182803
CZ-2C R/B               
1 28222U 04012C   26042.61492962  .00053312  00000+0  61758-3 0  9999
2 28222  97.7304 105.4932 0015642  50.2155 310.0476 15.61517703200209
SL-16 R/B               
1 28353U 04021B   26042.08122296  .00000210  00000+0  13391-3 0  9994
2 28353  70.9995 288.3356 0003036  76.1222 284.0238 14.14590917119075
CZ-4B R/B               
1 28415U 04035C   26042.59737039  .00008658  00000+0  30878-3 0  9994
2 28415  97.3548  77.1574 0033979  62.8577 297.6121 15.28577157175925
CZ-2C R/B               
1 28480U 04046B   26042.61162642  .00000138  00000+0  66740-4 0  9996
2 28480  98.1993 319.2155 0138374 231.7270 127.1398 14.26983025104788
ARIANE 5 R/B            
1 28499U 04049H   26042.49328072  .00001063  00000+0  12318-3 0  9995
2 28499  98.2584 209.9780 0085462  76.2573 284.8135 14.85212909141907
CZ-2D R/B               
1 28738U 05024B   26042.58424060  .00043310  00000+0  58011-3 0  9990
2 28738  97.3619  56.8214 0007599 109.0075 251.2005 15.57843832135711
